YAMAL 601               
1 44307U 19031A   25328.52243307  .00000140  00000+0  00000+0 0  9991
2 44307   0.0137 338.6770 0002181 258.7790  63.3729  1.00271223 23862
AT&T T-16               
1 44333U 19034A   25328.42142748 -.00000096  00000+0  00000+0 0  9990
2 44333   0.0258  63.2157 0000785  79.6460 331.6500  1.00273257 23583
EUTELSAT 7C             
1 44334U 19034B   25328.30009339  .00000068  00000+0  00000+0 0  9994
2 44334   0.0761 185.3375 0003172  29.6809 323.5728  1.00268552  4781
BEIDOU-3 IGSO-2         
1 44337U 19035A   25328.30966127 -.00000058  00000+0  00000+0 0  9995
2 44337  55.2211 160.6642 0037469 202.0131 291.8177  1.00277155 23617
COSMOS 2539             
1 44457U 19048A   25325.66142843  .00000104  00000+0  00000+0 0  9990
2 44457   0.0149  56.8754 0000818 340.4809 273.6915  1.00274983 23147
EDRS-C                  
1 44475U 19049A   25328.39828734 -.00000241  00000+0  00000+0 0  9997
2 44475   0.0453 120.2183 0000918  97.7340 131.5738  1.00273505 23155
INTELSAT 39 (IS-39)     
1 44476U 19049B   25328.38234058  .00000053  00000+0  00000+0 0  9997
2 44476   0.0153 301.6396 0000944 186.4820 135.0748  1.00270985 23072
AMOS-17                 
1 44479U 19050A   25328.30208675  .00000129  00000+0  00000+0 0  9994
2 44479   0.0146   0.6353 0001435 229.8126 318.8459  1.00270461 23139
AEHF-5 (USA 292)        
1 44481U 19051A   25328.38840727 -.00000238  00000+0  00000+0 0  9998
2 44481   1.7084 322.8542 0068072   3.5382 330.0815  1.00268194 23201
EUTELSAT 5 WEST B       
1 44624U 19067A   25328.36908050 -.00000022  00000+0  00000+0 0  9997
2 44624   0.0670 335.0509 0003147 266.5994 309.8236  1.00271391 22386
TJS-4                   
1 44637U 19070A   25328.52927977 -.00000149  00000+0  00000+0 0  9992
2 44637   0.0233  31.9236 0006981 277.3136  28.5668  1.00269240 22419
BEIDOU-3 IGSO-3         
1 44709U 19073A   25324.29956875 -.00000206  00000+0  00000+0 0  9998
2 44709  55.1630 283.1590 0044538 191.5856 168.2409  1.00250097 22360
TIBA-1                  
1 44800U 19080A   25328.66248417  .00000175  00000+0  00000+0 0  9993
2 44800   0.0545 341.5313 0001812 246.2258 110.1343  1.00272253 22002
INMARSAT GX5            
1 44801U 19080B   25328.27336484  .00000095  00000+0  00000+0 0  9994
2 44801   0.0401  10.2692 0002004 242.4074 280.2463  1.00271049  4736
JCSAT-18 (KACIFIC 1)    
1 44868U 19091A   25328.19489360 -.00000180  00000+0  00000+0 0  9998
2 44868   0.0090 326.2849 0000335 300.8457  16.4665  1.00272770 21954
ELEKTRO-L 3             
1 44903U 19095A   25328.52780642 -.00000077  00000+0  00000+0 0  9991
2 44903   0.0413 219.2204 0002239  47.0008  63.5288  1.00272556 21659
SHIJIAN-20 (SJ-20)      
1 44910U 19097A   25328.58201264 -.00000098  00000+0  00000+0 0  9998
2 44910   4.3933  77.5866 0005100 209.8665  63.9306  1.00273091 21646
TJS-5                   
1 44978U 20002A   25328.66153766 -.00000322  00000+0  00000+0 0  9992
2 44978   0.2976  89.5013 0005326  98.9651 221.0492  1.00268114 21644
GSAT-30                 
1 45026U 20005A   25328.45782771  .00000000  00000+0  00000+0 0  9993
2 45026   0.0114 301.8487 0002133 261.7597 107.9000  1.00270812 21452
EUTELSAT KONNECT        
1 45027U 20005B   25328.37150718  .00000070  00000+0  00000+0 0  9992
2 45027   0.0658 102.6530 0001195 173.1696 288.7159  1.00271896 22272
JCSAT-17                
1 45245U 20013A   25328.46831442 -.00000300  00000+0  00000+0 0  9990
2 45245   5.4069 354.8255 0003088 252.8237 120.6469  1.00270897 21180
GEO-KOMPSAT-2B          
1 45246U 20013B   25328.39551397 -.00000324  00000+0  00000+0 0  9997
2 45246   0.0111 344.1686 0001975 274.6180  75.4950  1.00270809 21222
BEIDOU-3 G2             
1 45344U 20017A   25328.52867310 -.00000122  00000+0  00000+0 0  9996
2 45344   2.9651  43.3969 0003964 266.4436  24.2988  1.00272276 21207
AEHF-6 (USA 298)        
1 45465U 20022B   25328.39742066 -.00000278  00000+0  00000+0 0  9993
2 45465   3.0039 299.1174 0047381   7.7374  37.5691  1.00275702 20967
BEIDOU-3 G3             
1 45807U 20040A   25327.57870737 -.00000333  00000+0  00000+0 0  9991
2 45807   1.9422  66.4151 0004944 312.6946   2.6120  1.00273026 20003
APSTAR-6D               
1 45863U 20045A   25326.25638001 -.00000295  00000+0  00000+0 0  9995
2 45863   0.0573 106.2528 0002564 342.7563 198.8355  1.00274626 19786
KOREASAT 116            
1 45920U 20048A   25327.96506094 -.00000342  00000+0  00000+0 0  9990
2 45920   0.0334  63.3803 0000844 152.0962 311.3254  1.00276775 19583
EXPRESS 103             
1 45985U 20053A   25328.71703353 -.00000261  00000+0  00000+0 0  9998
2 45985   0.0176 289.5806 0000589 226.9083 262.0867  1.00270513 19591
EXPRESS 80              
1 45986U 20053B   25328.60063873 -.00000116  00000+0  00000+0 0  9992
2 45986   0.0119 308.8412 0001988  91.6287 319.5748  1.00272534 19573
BSAT-4B                 
1 46112U 20056A   25328.39187397 -.00000330  00000+0  00000+0 0  9999
2 46112   0.0598 121.5739 0002371  65.2597 127.6957  1.00269850 19337
MEV-2                   
1 46113U 20056B   25328.17266802  .00000009  00000+0  00000+0 0  9997
2 46113   0.0202  41.8882 0000696 227.7361 214.9582  1.00270941 19174
GALAXY 30 (G-30)        
1 46114U 20056C   25328.36920044  .00000057  00000+0  00000+0 0  9997
2 46114   0.0178 316.5195 0002013 279.4585 195.5190  1.00271762 19231
GAOFEN-13 01            
1 46610U 20071A   25328.32228021 -.00000342  00000+0  00000+0 0  9995
2 46610   0.0144 299.1575 0041921 261.4991  97.0998  1.00265658 18863
TIANTONG-1 2            
1 46916U 20082A   25328.53751315 -.00000336  00000+0  00000+0 0  9999
2 46916   1.1440 306.9227 0003568 346.1875  89.0792  1.00270413 18601
LUCAS (JDRS-1)          
1 47202U 20089A   25328.38806060 -.00000216  00000+0  00000+0 0  9993
2 47202   0.0136 344.8677 0003118 264.8912  44.3139  1.00274735 18362
SXM-7                   
1 47240U 20096A   25328.42454750 -.00000186  00000+0  00000+0 0  9999
2 47240   0.0073  55.6607 0004679  83.0372 352.6072  1.00274672  5398
CMS-01                  
1 47256U 20099A   25328.38650059 -.00000145  00000+0  00000+0 0  9999
2 47256   0.0399 113.7701 0007842 146.4750  25.5111  1.00271134 18143
TURKSAT 5A              
1 47306U 21001A   25328.30486009  .00000174  00000+0  00000+0 0  9994
2 47306   0.0293  66.1472 0000220  10.8522 127.2038  1.00271324 17915
TIANTONG-1 3            
1 47321U 21003A   25328.52893309 -.00000136  00000+0  00000+0 0  9991
2 47321   1.9753 328.0607 0007054 298.8595  68.8065  1.00271405 17913
TJS-6                   
1 47613U 21010A   25328.52336453  .00000064  00000+0  00000+0 0  9994
2 47613   0.0718 110.1403 0002101 216.3993 104.1825  1.00275604 17752
SBIRS GEO-5 (USA 315)   
1 48618U 21042A   25327.96064091 -.00000251  00000+0  00000+0 0  9997
2 48618   5.3745 327.6791 0004595 237.5919 297.5634  1.00271767 16719
FENGYUN 4B              
1 48808U 21047A   25328.53343979 -.00000309  00000+0  00000+0 0  9996
2 48808   0.0763 294.4965 0010706  67.8790 357.9420  1.00266483 16519
SXM-8                   
1 48838U 21049A   25328.42446082 -.00000186  00000+0  00000+0 0  9991
2 48838   0.0193  11.1660 0004332  36.1869  83.9460  1.00275543 16549
TIANLIAN 1-05           
1 49011U 21063A   25328.23067297  .00000128  00000+0  00000+0 0  9992
2 49011   1.0628  82.1377 0005381 170.3028 270.8250  1.00272164 16026
STAR ONE D2             
1 49055U 21069A   25327.85681334 -.00000245  00000+0  00000+0 0  9998
2 49055   0.0104 304.6082 0002614 273.3967  83.5400  1.00271420 15871
EUTELSAT QUANTUM        
1 49056U 21069B   25328.16549925  .00000146  00000+0  00000+0 0  9992
2 49056   0.0397  62.8768 0003003 193.8297 273.9689  1.00272536 15878
ZHONGXING-2E            
1 49062U 21071A   25328.53222644 -.00000272  00000+0  00000+0 0  9990
2 49062   0.0456  70.9010 0001517 198.7954  83.7310  1.00271174 15980
TJS-7                   
1 49115U 21077A   25328.49523876 -.00000104  00000+0  00000+0 0  9995
2 49115   0.0256 268.2120 0000559 306.4242 287.8315  1.00273840  7507
CHINASAT 9B             
1 49125U 21080A   25328.53283311 -.00000293  00000+0  00000+0 0  9991
2 49125   0.0427  98.2416 0003507 136.5020 122.2676  1.00272675 15594
SHIJIAN-21 (SJ-21)      
1 49330U 21094A   25328.70519008 -.00000329  00000+0  00000+0 0  9998
2 49330   4.6576  62.4731 0055915 169.0213 214.2821  1.00260689  3329
SES-17                  
1 49332U 21095A   25328.35677375 -.00000252  00000+0  00000+0 0  9999
2 49332   0.0182   6.2954 0000785 229.7412 248.8909  1.00268745 15804
SYRACUSE 4A             
1 49333U 21095B   25328.53169595  .00000155  00000+0  00000+0 0  9991
2 49333   0.0103 326.0669 0001552 266.8703  67.7356  1.00269152 15898
QZS-1R (MICHIBIKI-1R)   
1 49336U 21096A   25325.67629156 -.00000232  00000+0  00000+0 0  9998
2 49336  37.0334  82.6733 0752457 270.9080  86.5520  1.00264912 14930
ZHONGXING-1D            
1 49505U 21114A   25328.75530870 -.00000316  00000+0  00000+0 0  9996
2 49505   0.0270 248.6071 0002510   5.7202 211.7472  1.00273026 14781
STPSAT-6                
1 49817U 21118A   25328.35947325 -.00000025  00000+0  00000+0 0  9996
2 49817   0.0148 351.4505 0002327 294.1737 155.5119  1.00273579 14516
LDPE-1                  
1 49818U 21118B   25328.35590706 -.00000184  00000+0  00000+0 0  9990
2 49818   3.2287  81.3693 0003411 234.1064 164.8691  1.01745673 14591
EXPRESS AMU-7           
1 50001U 21123A   25328.74898866 -.00000223  00000+0  00000+0 0  9997
2 50001   0.0174 291.8548 0000609 221.0904 325.6681  1.00271357 14495
EXPRESS AMU-3           
1 50002U 21123B   25327.53958505 -.00000301  00000+0  00000+0 0  9998
2 50002   0.0198 294.8154 0000579 312.9902 112.2191  1.00270756  4972
TIANLIAN 2-02           
1 50005U 21124A   25328.52336453  .00000006  00000+0  00000+0 0  9995
2 50005   0.2694  91.3756 0005216 164.8453 166.9470  1.00269792 14564
